STARLINK-1569
1 16039C 20055N   21326.13124458 -.00003749  00000-0 -25125-3 0  3263
2 16039  53.0544 328.1630 0001734  60.1020  49.3876 15.06391661    18
